[{"OBJECT_NAME":"ONEWEB-0095","OBJECT_ID":"2020-020N","EPOCH":"2026-02-04T23:27:00.280512","MEAN_MOTION":13.11416637,"ECCENTRICITY":0.00026166,"INCLINATION":87.8819,"RA_OF_ASC_NODE":47.3691,"ARG_OF_PERICENTER":93.7087,"MEAN_ANOMALY":266.434,"EPHEMERIS_TYPE":0,"CLASSIFICATION_TYPE":"U","NORAD_CAT_ID":45436,"ELEMENT_SET_NO":999,"REV_AT_EPOCH":28534,"BSTAR":-0.0014956911,"MEAN_MOTION_DOT":-5.17e-6,"MEAN_MOTION_DDOT":0},{"OBJECT_NAME":"ONEWEB-0092","OBJECT_ID":"2020-020P","EPOCH":"2026-02-05T06:06:00.451296","MEAN_MOTION":13.11413779,"ECCENTRICITY":0.00021497,"INCLINATION":87.8819,"RA_OF_ASC_NODE":47.314,"ARG_OF_PERICENTER":86.1318,"MEAN_ANOMALY":274.0056,"EPHEMERIS_TYPE":0,"CLASSIFICATION_TYPE":"U","NORAD_CAT_ID":45437,"ELEMENT_SET_NO":999,"REV_AT_EPOCH":28549,"BSTAR":0.0010804621,"MEAN_MOTION_DOT":3.96e-6,"MEAN_MOTION_DDOT":0},{"OBJECT_NAME":"ONEWEB-0085","OBJECT_ID":"2020-020Q","EPOCH":"2026-02-04T23:39:00.713952","MEAN_MOTION":13.11417922,"ECCENTRICITY":0.00018673,"INCLINATION":87.8815,"RA_OF_ASC_NODE":47.3734,"ARG_OF_PERICENTER":89.7062,"MEAN_ANOMALY":270.4279,"EPHEMERIS_TYPE":0,"CLASSIFICATION_TYPE":"U","NORAD_CAT_ID":45438,"ELEMENT_SET_NO":999,"REV_AT_EPOCH":28534,"BSTAR":-0.0011046338,"MEAN_MOTION_DOT":-3.79e-6,"MEAN_MOTION_DDOT":0},{"OBJECT_NAME":"ONEWEB-0096","OBJECT_ID":"2020-020R","EPOCH":"2026-02-05T07:00:55.176192","MEAN_MOTION":13.11418253,"ECCENTRICITY":0.00018198,"INCLINATION":87.8827,"RA_OF_ASC_NODE":47.2974,"ARG_OF_PERICENTER":87.7392,"MEAN_ANOMALY":272.3945,"EPHEMERIS_TYPE":0,"CLASSIFICATION_TYPE":"U","NORAD_CAT_ID":45439,"ELEMENT_SET_NO":999,"REV_AT_EPOCH":28537,"BSTAR":-0.001082626,"MEAN_MOTION_DOT":-3.71e-6,"MEAN_MOTION_DDOT":0},{"OBJECT_NAME":"ONEWEB-0037","OBJECT_ID":"2020-020S","EPOCH":"2026-02-05T06:32:51.081216","MEAN_MOTION":13.1141627,"ECCENTRICITY":0.00019207,"INCLINATION":87.8832,"RA_OF_ASC_NODE":47.2756,"ARG_OF_PERICENTER":89.9792,"MEAN_ANOMALY":270.1556,"EPHEMERIS_TYPE":0,"CLASSIFICATION_TYPE":"U","NORAD_CAT_ID":45440,"ELEMENT_SET_NO":999,"REV_AT_EPOCH":28540,"BSTAR":-0.0010871746,"MEAN_MOTION_DOT":-3.73e-6,"MEAN_MOTION_DDOT":0},{"OBJECT_NAME":"ONEWEB-0042","OBJECT_ID":"2020-020T","EPOCH":"2026-02-04T23:26:37.412160","MEAN_MOTION":13.11408444,"ECCENTRICITY":0.00017388,"INCLINATION":87.8831,"RA_OF_ASC_NODE":47.3571,"ARG_OF_PERICENTER":85.6452,"MEAN_ANOMALY":274.4875,"EPHEMERIS_TYPE":0,"CLASSIFICATION_TYPE":"U","NORAD_CAT_ID":45441,"ELEMENT_SET_NO":999,"REV_AT_EPOCH":28533,"BSTAR":-0.0049589802,"MEAN_MOTION_DOT":-1.744e-5,"MEAN_MOTION_DDOT":0},{"OBJECT_NAME":"ONEWEB-0098","OBJECT_ID":"2020-020U","EPOCH":"2026-02-05T06:40:09.645024","MEAN_MOTION":13.1141749,"ECCENTRICITY":0.00017675,"INCLINATION":87.8824,"RA_OF_ASC_NODE":47.3106,"ARG_OF_PERICENTER":92.6532,"MEAN_ANOMALY":267.4799,"EPHEMERIS_TYPE":0,"CLASSIFICATION_TYPE":"U","NORAD_CAT_ID":45442,"ELEMENT_SET_NO":999,"REV_AT_EPOCH":28535,"BSTAR":-0.0012094838,"MEAN_MOTION_DOT":-4.16e-6,"MEAN_MOTION_DDOT":0},{"OBJECT_NAME":"ONEWEB-0055","OBJECT_ID":"2020-020V","EPOCH":"2026-02-05T00:46:09.761952","MEAN_MOTION":13.11413751,"ECCENTRICITY":0.00018187,"INCLINATION":87.8821,"RA_OF_ASC_NODE":47.3592,"ARG_OF_PERICENTER":91.1636,"MEAN_ANOMALY":268.97,"EPHEMERIS_TYPE":0,"CLASSIFICATION_TYPE":"U","NORAD_CAT_ID":45443,"ELEMENT_SET_NO":999,"REV_AT_EPOCH":28529,"BSTAR":0.00025655137,"MEAN_MOTION_DOT":1.04e-6,"MEAN_MOTION_DDOT":0},{"OBJECT_NAME":"ONEWEB-0093","OBJECT_ID":"2020-020W","EPOCH":"2026-02-04T22:21:06.125760","MEAN_MOTION":13.11417815,"ECCENTRICITY":0.00018515,"INCLINATION":87.8824,"RA_OF_ASC_NODE":47.3681,"ARG_OF_PERICENTER":76.917,"MEAN_ANOMALY":283.2164,"EPHEMERIS_TYPE":0,"CLASSIFICATION_TYPE":"U","NORAD_CAT_ID":45444,"ELEMENT_SET_NO":999,"REV_AT_EPOCH":28534,"BSTAR":0.0011587813,"MEAN_MOTION_DOT":4.23e-6,"MEAN_MOTION_DDOT":0},{"OBJECT_NAME":"ONEWEB-0029","OBJECT_ID":"2020-020X","EPOCH":"2026-02-05T06:03:33.566112","MEAN_MOTION":13.11416258,"ECCENTRICITY":0.00017261,"INCLINATION":87.8824,"RA_OF_ASC_NODE":47.3163,"ARG_OF_PERICENTER":87.1707,"MEAN_ANOMALY":272.9619,"EPHEMERIS_TYPE":0,"CLASSIFICATION_TYPE":"U","NORAD_CAT_ID":45445,"ELEMENT_SET_NO":999,"REV_AT_EPOCH":28536,"BSTAR":0.0012931388,"MEAN_MOTION_DOT":4.71e-6,"MEAN_MOTION_DDOT":0},{"OBJECT_NAME":"ONEWEB-0068","OBJECT_ID":"2020-020Y","EPOCH":"2026-02-04T22:20:42.055584","MEAN_MOTION":13.11417263,"ECCENTRICITY":0.00017125,"INCLINATION":87.8824,"RA_OF_ASC_NODE":47.3703,"ARG_OF_PERICENTER":85.5007,"MEAN_ANOMALY":274.6317,"EPHEMERIS_TYPE":0,"CLASSIFICATION_TYPE":"U","NORAD_CAT_ID":45446,"ELEMENT_SET_NO":999,"REV_AT_EPOCH":28526,"BSTAR":0.0012030628,"MEAN_MOTION_DOT":4.39e-6,"MEAN_MOTION_DDOT":0},{"OBJECT_NAME":"ONEWEB-0046","OBJECT_ID":"2020-020Z","EPOCH":"2026-02-04T23:58:33.420288","MEAN_MOTION":13.11418816,"ECCENTRICITY":0.00019543,"INCLINATION":87.8825,"RA_OF_ASC_NODE":47.3639,"ARG_OF_PERICENTER":83.9877,"MEAN_ANOMALY":276.1474,"EPHEMERIS_TYPE":0,"CLASSIFICATION_TYPE":"U","NORAD_CAT_ID":45447,"ELEMENT_SET_NO":999,"REV_AT_EPOCH":28528,"BSTAR":0.00017866008,"MEAN_MOTION_DOT":7.6e-7,"MEAN_MOTION_DDOT":0},{"OBJECT_NAME":"ONEWEB-0063","OBJECT_ID":"2020-020AA","EPOCH":"2026-02-05T00:40:04.125792","MEAN_MOTION":13.11415023,"ECCENTRICITY":0.00020704,"INCLINATION":87.8822,"RA_OF_ASC_NODE":47.356,"ARG_OF_PERICENTER":87.9277,"MEAN_ANOMALY":272.2088,"EPHEMERIS_TYPE":0,"CLASSIFICATION_TYPE":"U","NORAD_CAT_ID":45448,"ELEMENT_SET_NO":999,"REV_AT_EPOCH":28537,"BSTAR":0.00083104331,"MEAN_MOTION_DOT":3.07e-6,"MEAN_MOTION_DDOT":0},{"OBJECT_NAME":"ONEWEB-0019","OBJECT_ID":"2020-020AB","EPOCH":"2026-02-05T07:05:36.461760","MEAN_MOTION":13.11419752,"ECCENTRICITY":0.00017634,"INCLINATION":87.8811,"RA_OF_ASC_NODE":47.3002,"ARG_OF_PERICENTER":95.34,"MEAN_ANOMALY":264.7929,"EPHEMERIS_TYPE":0,"CLASSIFICATION_TYPE":"U","NORAD_CAT_ID":45449,"ELEMENT_SET_NO":999,"REV_AT_EPOCH":28525,"BSTAR":-0.0010364403,"MEAN_MOTION_DOT":-3.55e-6,"MEAN_MOTION_DDOT":0},{"OBJECT_NAME":"ONEWEB-0094","OBJECT_ID":"2020-020AC","EPOCH":"2026-02-05T05:25:14.579616","MEAN_MOTION":13.17647359,"ECCENTRICITY":0.00017254,"INCLINATION":87.9108,"RA_OF_ASC_NODE":32.0535,"ARG_OF_PERICENTER":87.3409,"MEAN_ANOMALY":272.792,"EPHEMERIS_TYPE":0,"CLASSIFICATION_TYPE":"U","NORAD_CAT_ID":45450,"ELEMENT_SET_NO":999,"REV_AT_EPOCH":28893,"BSTAR":8.7365917e-5,"MEAN_MOTION_DOT":4.7e-7,"MEAN_MOTION_DDOT":0},{"OBJECT_NAME":"ONEWEB-0087","OBJECT_ID":"2020-020AD","EPOCH":"2026-02-05T00:54:30.292704","MEAN_MOTION":13.1141486,"ECCENTRICITY":0.00016359,"INCLINATION":87.8832,"RA_OF_ASC_NODE":47.3178,"ARG_OF_PERICENTER":83.2484,"MEAN_ANOMALY":276.883,"EPHEMERIS_TYPE":0,"CLASSIFICATION_TYPE":"U","NORAD_CAT_ID":45451,"ELEMENT_SET_NO":999,"REV_AT_EPOCH":28526,"BSTAR":-0.0003442238,"MEAN_MOTION_DOT":-1.09e-6,"MEAN_MOTION_DDOT":0},{"OBJECT_NAME":"ONEWEB-0082","OBJECT_ID":"2020-020AE","EPOCH":"2026-02-05T00:49:49.042560","MEAN_MOTION":13.11414304,"ECCENTRICITY":0.00016493,"INCLINATION":87.8831,"RA_OF_ASC_NODE":47.3436,"ARG_OF_PERICENTER":85.4209,"MEAN_ANOMALY":274.7107,"EPHEMERIS_TYPE":0,"CLASSIFICATION_TYPE":"U","NORAD_CAT_ID":45452,"ELEMENT_SET_NO":999,"REV_AT_EPOCH":28535,"BSTAR":7.2083215e-5,"MEAN_MOTION_DOT":3.8e-7,"MEAN_MOTION_DDOT":0}]
