ONEWEB-0095             
1 45436U 20020N   26035.97708658 -.00000517  00000+0 -14957-2 0  9994
2 45436  87.8819  47.3691 0002616  93.7087 266.4340 13.11416637285344
ONEWEB-0092             
1 45437U 20020P   26036.25417189  .00000396  00000+0  10805-2 0  9994
2 45437  87.8819  47.3140 0002149  86.1318 274.0056 13.11413779285497
ONEWEB-0085             
1 45438U 20020Q   26035.98542493 -.00000379  00000+0 -11046-2 0  9992
2 45438  87.8815  47.3734 0001867  89.7062 270.4279 13.11417922285349
ONEWEB-0096             
1 45439U 20020R   26036.29230528 -.00000371  00000+0 -10826-2 0  9998
2 45439  87.8827  47.2974 0001819  87.7392 272.3945 13.11418253285371
ONEWEB-0037             
1 45440U 20020S   26036.27281344 -.00000373  00000+0 -10872-2 0  9993
2 45440  87.8832  47.2756 0001920  89.9792 270.1556 13.11416270285403
ONEWEB-0042             
1 45441U 20020T   26035.97682190 -.00001744  00000+0 -49590-2 0  9996
2 45441  87.8831  47.3571 0001738  85.6452 274.4875 13.11408444285339
ONEWEB-0098             
1 45442U 20020U   26036.27788941 -.00000416  00000+0 -12095-2 0  9997
2 45442  87.8824  47.3106 0001767  92.6532 267.4799 13.11417490285355
ONEWEB-0055             
1 45443U 20020V   26036.03205743  .00000104  00000+0  25655-3 0  9995
2 45443  87.8821  47.3592 0001818  91.1636 268.9700 13.11413751285295
ONEWEB-0093             
1 45444U 20020W   26035.93132090  .00000423  00000+0  11588-2 0  9991
2 45444  87.8824  47.3681 0001851  76.9170 283.2164 13.11417815285344
ONEWEB-0029             
1 45445U 20020X   26036.25247183  .00000471  00000+0  12931-2 0  9994
2 45445  87.8824  47.3163 0001726  87.1707 272.9619 13.11416258285363
ONEWEB-0068             
1 45446U 20020Y   26035.93104231  .00000439  00000+0  12031-2 0  9990
2 45446  87.8824  47.3703 0001712  85.5007 274.6317 13.11417263285264
ONEWEB-0046             
1 45447U 20020Z   26035.99899792  .00000076  00000+0  17866-3 0  9999
2 45447  87.8825  47.3639 0001954  83.9877 276.1474 13.11418816285287
ONEWEB-0063             
1 45448U 20020AA  26036.02782553  .00000307  00000+0  83104-3 0  9996
2 45448  87.8822  47.3560 0002070  87.9277 272.2088 13.11415023285371
ONEWEB-0019             
1 45449U 20020AB  26036.29556090 -.00000355  00000+0 -10364-2 0  9993
2 45449  87.8811  47.3002 0001763  95.3400 264.7929 13.11419752285250
ONEWEB-0094             
1 45450U 20020AC  26036.22586319  .00000047  00000+0  87366-4 0  9999
2 45450  87.9108  32.0535 0001725  87.3409 272.7920 13.17647359288932
ONEWEB-0087             
1 45451U 20020AD  26036.03785061 -.00000109  00000+0 -34422-3 0  9999
2 45451  87.8832  47.3178 0001635  83.2484 276.8830 13.11414860285267
ONEWEB-0082             
1 45452U 20020AE  26036.03459540  .00000038  00000+0  72083-4 0  9995
2 45452  87.8831  47.3436 0001649  85.4209 274.7107 13.11414304285355
